{"fetched_at":"2026-07-24T07:06:08.057Z","source":"https://celestrak.org/NORAD/elements/gp.php?GROUP=oneweb&FORMAT=JSON","constellation":"oneweb","records":[{"OBJECT_NAME":"ONEWEB-0136","OBJECT_ID":"2020-100AA","EPOCH":"2026-07-23T20:40:45.587136","CLASSIFICATION_TYPE":"U","MEAN_MOTION":13.12442479,"ECCENTRICITY":0.0002126,"INCLINATION":87.8985,"RA_OF_ASC_NODE":343.3607,"ARG_OF_PERICENTER":98.8218,"MEAN_ANOMALY":261.3151,"EPHEMERIS_TYPE":0,"NORAD_CAT_ID":47282,"ELEMENT_SET_NO":999,"REV_AT_EPOCH":26947,"BSTAR":-0.00034268,"MEAN_MOTION_DOT":-0.00000111,"MEAN_MOTION_DDOT":0},{"OBJECT_NAME":"ONEWEB-0137","OBJECT_ID":"2020-100AB","EPOCH":"2026-07-23T19:39:45.849024","CLASSIFICATION_TYPE":"U","MEAN_MOTION":13.12444811,"ECCENTRICITY":0.0001789,"INCLINATION":87.8989,"RA_OF_ASC_NODE":343.3807,"ARG_OF_PERICENTER":94.3714,"MEAN_ANOMALY":265.7619,"EPHEMERIS_TYPE":0,"NORAD_CAT_ID":47283,"ELEMENT_SET_NO":999,"REV_AT_EPOCH":26937,"BSTAR":0.0001319,"MEAN_MOTION_DOT":6e-7,"MEAN_MOTION_DDOT":0},{"OBJECT_NAME":"ONEWEB-0138","OBJECT_ID":"2020-100AC","EPOCH":"2026-07-23T19:08:03.441984","CLASSIFICATION_TYPE":"U","MEAN_MOTION":13.12442926,"ECCENTRICITY":0.0002058,"INCLINATION":87.8983,"RA_OF_ASC_NODE":343.3884,"ARG_OF_PERICENTER":98.1869,"MEAN_ANOMALY":261.9493,"EPHEMERIS_TYPE":0,"NORAD_CAT_ID":47284,"ELEMENT_SET_NO":999,"REV_AT_EPOCH":26945,"BSTAR":-0.0011348,"MEAN_MOTION_DOT":-0.00000396,"MEAN_MOTION_DDOT":0},{"OBJECT_NAME":"ONEWEB-0139","OBJECT_ID":"2020-100AD","EPOCH":"2026-07-23T20:06:49.928832","CLASSIFICATION_TYPE":"U","MEAN_MOTION":13.1244259,"ECCENTRICITY":0.0001875,"INCLINATION":87.8993,"RA_OF_ASC_NODE":343.3682,"ARG_OF_PERICENTER":92.4816,"MEAN_ANOMALY":267.6527,"EPHEMERIS_TYPE":0,"NORAD_CAT_ID":47285,"ELEMENT_SET_NO":999,"REV_AT_EPOCH":26953,"BSTAR":0.0011622,"MEAN_MOTION_DOT":0.00000431,"MEAN_MOTION_DDOT":0},{"OBJECT_NAME":"ONEWEB-0140","OBJECT_ID":"2020-100AE","EPOCH":"2026-07-23T08:02:02.882112","CLASSIFICATION_TYPE":"U","MEAN_MOTION":13.12442436,"ECCENTRICITY":0.0001801,"INCLINATION":87.8985,"RA_OF_ASC_NODE":343.4582,"ARG_OF_PERICENTER":102.8579,"MEAN_ANOMALY":257.2751,"EPHEMERIS_TYPE":0,"NORAD_CAT_ID":47286,"ELEMENT_SET_NO":999,"REV_AT_EPOCH":26943,"BSTAR":-0.0010906,"MEAN_MOTION_DOT":-0.0000038,"MEAN_MOTION_DDOT":0},{"OBJECT_NAME":"ONEWEB-0141","OBJECT_ID":"2020-100AF","EPOCH":"2026-07-23T09:07:43.046112","CLASSIFICATION_TYPE":"U","MEAN_MOTION":13.12443102,"ECCENTRICITY":0.0001726,"INCLINATION":87.8984,"RA_OF_ASC_NODE":343.454,"ARG_OF_PERICENTER":87.9346,"MEAN_ANOMALY":272.198,"EPHEMERIS_TYPE":0,"NORAD_CAT_ID":47287,"ELEMENT_SET_NO":999,"REV_AT_EPOCH":26942,"BSTAR":0.0011361,"MEAN_MOTION_DOT":0.00000421,"MEAN_MOTION_DDOT":0},{"OBJECT_NAME":"ONEWEB-0142","OBJECT_ID":"2020-100AG","EPOCH":"2026-07-23T19:49:43.406112","CLASSIFICATION_TYPE":"U","MEAN_MOTION":13.12445455,"ECCENTRICITY":0.0002052,"INCLINATION":87.898,"RA_OF_ASC_NODE":343.3848,"ARG_OF_PERICENTER":86.3898,"MEAN_ANOMALY":273.7465,"EPHEMERIS_TYPE":0,"NORAD_CAT_ID":47288,"ELEMENT_SET_NO":999,"REV_AT_EPOCH":26947,"BSTAR":0.00070587,"MEAN_MOTION_DOT":0.00000267,"MEAN_MOTION_DDOT":0},{"OBJECT_NAME":"ONEWEB-0143","OBJECT_ID":"2020-100AH","EPOCH":"2026-07-23T20:04:10.322976","CLASSIFICATION_TYPE":"U","MEAN_MOTION":13.12443626,"ECCENTRICITY":0.0001819,"INCLINATION":87.8977,"RA_OF_ASC_NODE":343.3825,"ARG_OF_PERICENTER":96.8685,"MEAN_ANOMALY":263.265,"EPHEMERIS_TYPE":0,"NORAD_CAT_ID":47289,"ELEMENT_SET_NO":999,"REV_AT_EPOCH":26945,"BSTAR":0.0012461,"MEAN_MOTION_DOT":0.00000461,"MEAN_MOTION_DDOT":0},{"OBJECT_NAME":"ONEWEB-0144","OBJECT_ID":"2020-100AJ","EPOCH":"2026-07-23T19:22:41.896704","CLASSIFICATION_TYPE":"U","MEAN_MOTION":13.12443627,"ECCENTRICITY":0.0002218,"INCLINATION":87.8987,"RA_OF_ASC_NODE":343.3648,"ARG_OF_PERICENTER":94.6561,"MEAN_ANOMALY":265.4821,"EPHEMERIS_TYPE":0,"NORAD_CAT_ID":47290,"ELEMENT_SET_NO":999,"REV_AT_EPOCH":26937,"BSTAR":-0.00085045,"MEAN_MOTION_DOT":-0.00000293,"MEAN_MOTION_DDOT":0},{"OBJECT_NAME":"ONEWEB-0145","OBJECT_ID":"2020-100AK","EPOCH":"2026-07-23T15:01:39.628704","CLASSIFICATION_TYPE":"U","MEAN_MOTION":13.12442283,"ECCENTRICITY":0.0001922,"INCLINATION":87.8979,"RA_OF_ASC_NODE":343.4247,"ARG_OF_PERICENTER":95.8476,"MEAN_ANOMALY":264.2872,"EPHEMERIS_TYPE":0,"NORAD_CAT_ID":47291,"ELEMENT_SET_NO":999,"REV_AT_EPOCH":26954,"BSTAR":0.000069089,"MEAN_MOTION_DOT":3.8e-7,"MEAN_MOTION_DDOT":0},{"OBJECT_NAME":"ONEWEB-0146","OBJECT_ID":"2020-100AL","EPOCH":"2026-07-23T07:37:39.468288","CLASSIFICATION_TYPE":"U","MEAN_MOTION":13.12442524,"ECCENTRICITY":0.0001619,"INCLINATION":87.8975,"RA_OF_ASC_NODE":343.4792,"ARG_OF_PERICENTER":102.6777,"MEAN_ANOMALY":257.4533,"EPHEMERIS_TYPE":0,"NORAD_CAT_ID":47292,"ELEMENT_SET_NO":999,"REV_AT_EPOCH":26941,"BSTAR":0.000011727,"MEAN_MOTION_DOT":1.7e-7,"MEAN_MOTION_DDOT":0},{"OBJECT_NAME":"ONEWEB-0147","OBJECT_ID":"2020-100AM","EPOCH":"2026-07-23T19:37:19.828704","CLASSIFICATION_TYPE":"U","MEAN_MOTION":13.12444385,"ECCENTRICITY":0.0001958,"INCLINATION":87.8991,"RA_OF_ASC_NODE":343.3635,"ARG_OF_PERICENTER":101.0652,"MEAN_ANOMALY":259.0697,"EPHEMERIS_TYPE":0,"NORAD_CAT_ID":47293,"ELEMENT_SET_NO":999,"REV_AT_EPOCH":26937,"BSTAR":0.000055763,"MEAN_MOTION_DOT":3.3e-7,"MEAN_MOTION_DDOT":0},{"OBJECT_NAME":"ONEWEB-0115","OBJECT_ID":"2021-025A","EPOCH":"2026-07-23T17:47:01.559328","CLASSIFICATION_TYPE":"U","MEAN_MOTION":13.13472502,"ECCENTRICITY":0.0001904,"INCLINATION":87.8988,"RA_OF_ASC_NODE":312.9514,"ARG_OF_PERICENTER":102.2317,"MEAN_ANOMALY":257.9025,"EPHEMERIS_TYPE":0,"NORAD_CAT_ID":48042,"ELEMENT_SET_NO":999,"REV_AT_EPOCH":25839,"BSTAR":0.00049479,"MEAN_MOTION_DOT":0.00000193,"MEAN_MOTION_DDOT":0},{"OBJECT_NAME":"ONEWEB-0152","OBJECT_ID":"2021-025B","EPOCH":"2026-07-23T18:06:27.655200","CLASSIFICATION_TYPE":"U","MEAN_MOTION":13.13470511,"ECCENTRICITY":0.0001918,"INCLINATION":87.8989,"RA_OF_ASC_NODE":312.9476,"ARG_OF_PERICENTER":103.352,"MEAN_ANOMALY":256.7823,"EPHEMERIS_TYPE":0,"NORAD_CAT_ID":48043,"ELEMENT_SET_NO":999,"REV_AT_EPOCH":25835,"BSTAR":0.000010778,"MEAN_MOTION_DOT":1.7e-7,"MEAN_MOTION_DDOT":0},{"OBJECT_NAME":"ONEWEB-0153","OBJECT_ID":"2021-025C","EPOCH":"2026-07-23T13:55:24.031200","CLASSIFICATION_TYPE":"U","MEAN_MOTION":13.13470943,"ECCENTRICITY":0.0001996,"INCLINATION":87.8979,"RA_OF_ASC_NODE":312.9819,"ARG_OF_PERICENTER":98.053,"MEAN_ANOMALY":262.0825,"EPHEMERIS_TYPE":0,"NORAD_CAT_ID":48044,"ELEMENT_SET_NO":999,"REV_AT_EPOCH":25832,"BSTAR":0.000091989,"MEAN_MOTION_DOT":4.6e-7,"MEAN_MOTION_DDOT":0},{"OBJECT_NAME":"ONEWEB-0154","OBJECT_ID":"2021-025D","EPOCH":"2026-07-23T13:50:31.346880","CLASSIFICATION_TYPE":"U","MEAN_MOTION":13.13471244,"ECCENTRICITY":0.0002064,"INCLINATION":87.8987,"RA_OF_ASC_NODE":312.9823,"ARG_OF_PERICENTER":104.8393,"MEAN_ANOMALY":255.2964,"EPHEMERIS_TYPE":0,"NORAD_CAT_ID":48045,"ELEMENT_SET_NO":999,"REV_AT_EPOCH":25828,"BSTAR":-0.00014793,"MEAN_MOTION_DOT":-4.1e-7,"MEAN_MOTION_DDOT":0}]}
