ONEWEB-0136             
1 47282U 20100AA  26204.86163874 -.00000111  00000+0 -34268-3 0  9993
2 47282  87.8985 343.3607 0002126  98.8218 261.3151 13.12442479269477
ONEWEB-0137             
1 47283U 20100AB  26204.81928066  .00000060  00000+0  13190-3 0  9993
2 47283  87.8989 343.3807 0001789  94.3714 265.7619 13.12444811269378
ONEWEB-0138             
1 47284U 20100AC  26204.79726206 -.00000396  00000+0 -11348-2 0  9999
2 47284  87.8983 343.3884 0002058  98.1869 261.9493 13.12442926269453
ONEWEB-0139             
1 47285U 20100AD  26204.83807788  .00000431  00000+0  11622-2 0  9993
2 47285  87.8993 343.3682 0001875  92.4816 267.6527 13.12442590269533
ONEWEB-0140             
1 47286U 20100AE  26204.33475558 -.00000380  00000+0 -10906-2 0  9994
2 47286  87.8985 343.4582 0001801 102.8579 257.2751 13.12442436269438
ONEWEB-0141             
1 47287U 20100AF  26204.38035933  .00000421  00000+0  11361-2 0  9999
2 47287  87.8984 343.4540 0001726  87.9346 272.1980 13.12443102269423
ONEWEB-0142             
1 47288U 20100AG  26204.82619683  .00000267  00000+0  70587-3 0  9993
2 47288  87.8980 343.3848 0002052  86.3898 273.7465 13.12445455269471
ONEWEB-0143             
1 47289U 20100AH  26204.83623059  .00000461  00000+0  12461-2 0  9999
2 47289  87.8977 343.3825 0001819  96.8685 263.2650 13.12443626269459
ONEWEB-0144             
1 47290U 20100AJ  26204.80742936 -.00000293  00000+0 -85045-3 0  9998
2 47290  87.8987 343.3648 0002218  94.6561 265.4821 13.12443627269374
ONEWEB-0145             
1 47291U 20100AK  26204.62615311  .00000038  00000+0  69089-4 0  9991
2 47291  87.8979 343.4247 0001922  95.8476 264.2872 13.12442283269540
ONEWEB-0146             
1 47292U 20100AL  26204.31781792  .00000017  00000+0  11727-4 0  9998
2 47292  87.8975 343.4792 0001619 102.6777 257.4533 13.12442524269418
ONEWEB-0147             
1 47293U 20100AM  26204.81759061  .00000033  00000+0  55763-4 0  9994
2 47293  87.8991 343.3635 0001958 101.0652 259.0697 13.12444385269374
ONEWEB-0115             
1 48042U 21025A   26204.74099027  .00000193  00000+0  49479-3 0  9998
2 48042  87.8988 312.9514 0001904 102.2317 257.9025 13.13472502258398
ONEWEB-0152             
1 48043U 21025B   26204.75448675  .00000017  00000+0  10778-4 0  9993
2 48043  87.8989 312.9476 0001918 103.3520 256.7823 13.13470511258357
ONEWEB-0153             
1 48044U 21025C   26204.58013925  .00000046  00000+0  91989-4 0  9996
2 48044  87.8979 312.9819 0001996  98.0530 262.0825 13.13470943258323
ONEWEB-0154             
1 48045U 21025D   26204.57675170 -.00000041  00000+0 -14793-3 0  9996
2 48045  87.8987 312.9823 0002064 104.8393 255.2964 13.13471244258286
